Name,Street,Postal Code,City
BANG & OLUFSEN TAIPEI SHOP,"1F, No.133, Sec 3, Jen Ai Road",106,Taipei
BANG & OLUFSEN TAIPEI REGENT GALLERIA,"B2, No. 3, Lane 39, Sec. 2, Chung San North Road",104,TAIPEI
BANG & OLUFSEN TAIPEI 101,"2F, No.45, Shifu Road",110,Taipei
BANG & OLUFSEN TAICHUNG SHOP,"1F. No. 220, Sec 2, Gon Yi Road",408,Taichung
BANG & OLUFSEN KAOHSIUNG SHOP,"1 F, No. 251, Min-Chuan 1st Road",800,Kaohsiung
BANG & OLUFSEN TAICHUNG MITSUKOSHI,"3F, No. 301, Sec. 3, Taiwan Blvd.",407,Taichung City
BANG & OLUFSEN TAINAN MITSUKOSHI,"1F, No. 658, Sec. 1, Shi-Men Road",700,Tainan
BANG & OLUFSEN TAIPEI MITSUKOSHI,"2F, No. 9 , Sung-Shou Road",110,Taipei
BANG & OLUFSEN KAOHSIUNG STAR PLACE,"B1, No.57, Wufu 3rd Road",801,Kaohsiung
BANG & OLUFSEN GALLERIA,Galleria Department Store East 4F,135-902, Seoul
BANG & OLUFSEN LOTTE BUSAN MAIN AVENUEL,1st Floor Lotte Department Busan Main Store Avenuel,614-732,Busan
Bang & Olufsen Hyundai Jungdong,"5th Floor, Hyundi Dept. Joongdong Store",14546,"Bucheon -si, Gyeonggi-do"
Bang & Olufsen Shinsegae Hanam Starfield,"750 Misa-daero,",KS009,"Hanam City, Gyeonggi-do"
BANG & OLUFSEN FLAGSHIP STORE,"#618-4, Sinsa dong, Gangnam Gu",06023,Seoul
BANG & OLUFSEN HYUNDAI MAIN,"1st basement floor, Hyundai Dept. Main, Seoul",135-724,Seoul
BANG & OLUFSEN SHINSEGAE GANGNAM,Shinsegae Dept. Gangnam Store 3F,06546,Seoul
BANG & OLUFSEN LOTTE MAIN,"8th floor, Lotte Dept. Main,",100-721,Seoul
Bang & Olufsen am Schottenring,Schottenring 28,1010,Wien
Bang & Olufsen Hietzing,Fasangartengasse 3,1130,Wien
electronic4you GmbH,Inglitschstraße 25,9020,Klagenfurt am Wörthersee
Bang & Olufsen Nopp,Paschingerstraße 111,4060,Linz-Leonding
IQ-TEC Mühlthaler GmbH & CoKg,Bundesstraße 18a,6063,Neu-Rum
GREISBERGER AUDIO-U VIDEO HDL GESMBH,Robinigstraße 2 B,5020,Salzburg
Exenberger Elektro-Technik GmbH,Jochberger Straße 129,6370,Kitzbühel
Kreil GmbH,Rathausplatz 4,6850,Dornbirn
Bang & Olufsen Graz,Herrengasse 3,8010,Graz
Bang & Olufsen Kapellen,Essenhoutstraat 52-56,2950,KAPELLEN
Bang & Olufsen Antwerpen,Riemstraat 22B,2000,ANTWERPEN
Bang & Olufsen Brasschaat,Bredabaan 1073,2930,BRASSCHAAT
BVBA Audiomix,Liersesteenweg 321,3130,Begijnendijk (grens Aarschot)
AG HIFI - EXCLUSIV,Bergstrasse 22,4700,EUPEN
Bang & Olufsen Teleprince,Avenue du Prince de Ligne 24,1180,Uccle
Spelier Audiovisuele Realisaties NV,Leuvensesteenweg 579,3070,KORTENBERG
Robberechts NV,Vilvoordsesteenweg 307,1850,GRIMBERGEN
Bang & Olufsen Waasland,Krijgsbaan 209,9140,TEMSE
Bang & Olufsen Gent,Kortrijksesteenweg 271,9830,Sint-Martens-Latem
Bang & Olufsen Knokke,Natiënlaan 215,8300,KNOKKE
NV AUDIOVISIE GOETHALS,Baron Ruzettelaan 233,8310,BRUGGE
Beeld en Klank Opwijk bvba,Steenweg op Dendermonde 44,1745,Opwijk
Electro Rosseel BVBA,Snellegemsestraat 21,8210,Zedelgem
Bang & Olufsen Oostende,Karel Janssenslaan 37,8400,Oostende
A&D Vision SPRL,Boulevard de la Sauvenière 176,4000,Liège
Bang & Olufsen Kortrijk,Grote Markt 36,8500,Kortrijk
Electricite Fr. Wagener & Fils,Route d'Arlon 34,8210,Mamer
Music Center Scala,Avenue de la Gare  85,4004,ESCH S/ALZETTE
EET Group A/S,Bregnerødvej 133 D,3460,Birkerød
Kanjitsu,3-25 Kanda-Jimbo-Cho,101-0051,Tokyo
FAR WIDE TELECOMMUNICATIONS CO.LTD.,10F no. 127 Anxing Rd.,23159,New Taipei City
PASCO GmbH,Rudolf-Diesel-Str. 12,69207,Sandhausen
PASCO GmbH,Rudolf-Diesel-Str. 12,69207,Sandhausen
ARAB Business Machines FZE,"10th Floor, Cayan Business Center",1,Dubai
Aqipa GmbH,Möslbichl 78,6250,Kundl
Aqipa Iberia S.L.,Calle José Agustin Goytisolo 53,08908,Barcelona
Kondor Limited,Christchurch Business Park,BH23 4FL,Christchurch
Aztek Teknoloji A.S.,2 Söltas Evleri Hare Sok. No: 1,34330,Istanbul
Bconnect Technologies Ltd.,Bilu In Center,7695001,Kiryat Ekron
Brightpoint New Zealand Limited,78 Apollo Drive,0632,Auckland
Hong Kong Lava Holdings Company Ltd,39 Wang Chiu Road,1,Kowloon Bay
"Viastara, Latam",2660 Sarnen St. Suite 200,92154,San Diego
AQIPA ITALIA S.R.L.,Via Ponte 80,37026,Pescantina
Quantum Solutions Trading DMCC,"Jumeirah Lakes Towers, Office no. 2103",1,Dubai
Kolon Global Corporation,301 Yeongdong-daero,06189,Seoul
Aurora Group Danmark A/S,Lautruphøj 5-7,2750,Ballerup
Exertis UK Ltd.,Parkway,CM19 5Q,Harlow
Modern Home,Salwa Road,615,Doha
COMPU B LTD,121 O'Connell Street,V94,Limerick
Ecomedia AG,Grossrietstrasse 2,8606,Nänikon
Aqipa Australia PTY LTD,49 Babbage Dr.,3175,Dandenong South
Ingram Micro PTY LTD,61 Dunning Avenue,2018,Rosebery
AudioNord International A/S,Dali Alle 1,9610,Nørager
Realview Digital Ltd.,23 Stasinou Str. 2nd floor,2404,Egkomi
"Amazon EU SARL, UK Branch",60 Holborn Viaduct,EC1A 2FD,London
"Amazon EU SARL, Succursale Italiana",Via Ferrante Aporti 8,20125,Milano
"Amazon EU SARL, succursale francaise",67 Boulevard du Général Leclerc,92110,Clichy
"Amazon EU SARL, Sucursal en Espana",Via De Las Dos Castillas 33 - Atica,28224,Madrid
"Amazon EU SARL, Niederlassung Deutschlan",Marcel-Breuer-Str. 12,80807,München
Amazon EU S.a r.l.,"38, Avenue John F. Kennedy",1855,Luxembourg
Amazon EU S.a r.l.,"38, Avenue John F. Kennedy",1855,Luxembourg
Schäfer Travel Retail GmbH,Industriestraße 28,56307,Daufenbach
"Amazon EU SARL, UK Branch",60 Holborn Viaduct,EC1A 2FD,London
"Amazon EU SARL, Succursale Italiana",Via Ferrante Aporti 8,20125,Milano
"Amazon EU SARL, succursale francaise",67 Boulevard du Général Leclerc,92110,Clichy
"Amazon EU SARL, Sucursal en Espana",Via De Las Dos Castillas 33 - Atica,28224,Madrid
"Amazon EU SARL, Niederlassung Deutschlan",Marcel-Breuer-Str. 12,80807,München
Amazon EU S.a r.l.,"38, Avenue John F. Kennedy",1855,Luxembourg
Amazon EU S.a r.l.,"38, Avenue John F. Kennedy",1855,Luxembourg
arvato digital services LLX,29011 Commerce Center Dr,91355,Valencia
"Project Horizon, Inc.",4801 Executive Park Ct.  #100,32216,Jacksonville
Greenline Distribution,9494 W Flamingo Road Suite 101,89147,"Las Vegas, NV"
Superior Communications,5082 4TH Street,91706,"Irwindale, CA"
Lenbrook Canada,633 Granite Court,L1W 3K1,"Pickering,"
PlanITROI Inc.,100-10 Ford Road,07834,Denville
Amazon.com,P.O. BOX 80387,98108,Seattle
The Museum of Modern Art,11 West 53 Street,10019,New York
Amazon CA.,PO Box 80387,98108-0387,Seattle
Bang  & Olufsen Retail LLC E:Store,"79 Walker Street, 4th floor",10013,New York
Apple Inc. - Consignment Invoiced,2911 Laguna Blvd Att A/P MS-B9,95758,Elk Grove
AppleComputerTrading(Shanghai)Co Ltd,外高桥保税区马吉路88号C区6号全幢,201109,上海市
"Beijing Lava Technology Develop Co., Ltd","No.5 Warehouse 3029 Long, Huaxu Road, Huaxin Town",201700,Shanghai
YUECHANG （SHANGHAI）,"19/F，Enterprise Square,228 Mei Yuan Road",200070,Shanghai
Apple Asia Limited,"2401 Tower One, Times Square",0000,Causeway Bay
Sparkle Roll International,30 Harbour Road,1,Hong Kong
Baili Commercial Limited,145-149 Queen's road central,1,Hong Kong
Dah Chong Hong Limited,20 Kai Cheung Rd,1,"KLN Bay, Hong Kong"
Lane Crawford (Hong Kong) Limited,"30 F, One Island South, 2 Heung Yip Rd",1,Hong Kong
Bang & Olufsen Shenzhen YiTian Holiday,"Shop L2-38, 2/F, YiTian Holiday Plaza",518000,Shenzhen
Bang & Olufsen Hangzhou MixC,"L5-563, the MixC, 701 Fuchun Rd,",310016,Hangzhou
Bang & Olufsen Shanghai,"1/F, Corporate Avenue Building 1",200021,Shanghai
Bang & Olufsen Shenzhen The MixC,1881 Baoan Nan Road,518001,Shenzhen
Bang & Olufsen Guangzhou TaiKooHui,"383 Tianhe Road,",510620,Guangzhou
Bang & Olufsen HangzhouTower,208 North Huancheng Bei Road,310006,Hangzhou
Bang & Olufsen Shanghai IFC,8 Century Avenue,200120,Shanghai
Bang & Olufsen Beijing Experience Center,40 Xindong Road,100027,Beijing
Bang & Olufsen Beijing Flagship,"Ground Floor, No.89 Jianguo Road",100025,Beijing
Bang & Olufsen Beijing China World,1 Jianguomenwai Avenue,100004,Beijing
Bang & Olufsen Xian SKP,A8011-3 8F 261 ChangAnBei Road,710061,Xian
Bang & Olufsen Xian Zhujiang Jinhua,B1-35 336 East Huancheng South Road,710054,Xian
Bang & Olufsen Xian ZhongDa,L124A 1F 72 Gaoxin Road,710075,Xian
Bang & Olufsen Shenyang MixC,288 Qingnian Street,110000,Shenyang
Bang & Olufsen Chengdu Taikooli,"No. 8 Shamao Street,",610021,Chengdu
Bang & Olufsen Xiamen MixC,"No 99, East Hubin Road",361001,Xiamen
Bang & Olufsen Shanghai I-apm,999 Middle Huaihai Road,200030,Shanghai
Bang & Olufsen Beijing SKP,"87 Jianguo Road,",100020,Beijing
Bang & Olufsen Zhengzhou ZhengHongCheng,"Dongfeng Road,",450003,"Zhengzhou,"
Bang & Olufsen Nanjing Deji,"609, 6F, No.18 of Zhongshan Road",210005,Nanjing
"Bang & Olufsen Lanzhou, Lanzhou Center","L1, Lanzhou Center, 14 Xijin West Rd,",730050,"Lanzhou,"
Bang & Olufsen Shenzhen Bay the MixC,Sth East corner of Keyuan Rd and Haide 3rd Rd,518063,Shenzhen
LBS ApS,Maigårdsvej 2 G,9900,Frederikshavn
Dragsbæk K/S,Vingårdsgade 16-20,9000,Aalborg
Bang & Olufsen Frederiksberg,Falkoner Alle 7,2000,Frederiksberg
Bang & Olufsen Bremdal,Bremdalvej 8,7600,Struer
Thougaard A/S,Sct. Mathias Gade 30,8800,Viborg
Laursen & Hornemann ApS,Rådhustorvet 9,8900,Randers C
Expert Hobro,Adelgade 40,9500,Hobro
Bang & Olufsen Herning A/S,Torvet 20,7400,Herning
A/V Solutions A/S,Torvet 2A,8600,Silkeborg
Bang & Olufsen v. Dragsbæk K/S,Klostergade 14,8000,Aarhus C
Radio Loft ApS,Hovedgaden 57,8220,Brabrand
Bang & Olufsen Århus C - Store Torv,Store Torv 16,8000,Aarhus C
Radio Holm 2 A/S,Gl. Vardevej 237,6715,Esbjerg N
Expert Grindsted,Trehøjevej 19,7200,Grindsted
Schanz ApS,Østergade 20,6400,Sønderborg
"Bang & Olufsen, Middelfart ApS",Vestergade 85,5500,Middelfart
Bang og Olufsen Center,Klaregade 3,5000,Odense C
Helsingør Radio & TV ApS,Bjergegade 10,3000,Helsingør
Bang & Olufsen Lyngby,Lyngby Hovedgade 80,2800,Kongens Lyngby
Bang & Olufsen Rødovre,Hvidovrevej 78,2610,Rødovre
Bang & Olufsen Hellerup,Strandvejen 100,2900,Hellerup
Bang & Olufsen Rødovre Centrum,Rødovre Centrum,2610,Rødovre
Bang & Olufsen Thisted,Storegade 23,7700,Thisted
Expert/Lysmesteren Arne´s Foto og TV,Himmerlandsgade 57,9600,Aars
Centrum Radio Næstved ApS,Ringstedgade 7,4700,Næstved
Expert / Punkt1 Nexø,Købmagergade 3 1,3730,Nexø
A/S Zolutions Art & Design,Herningvej 36,4800,Nykøbing F
3H Vejle ApS,Kalkbrænderivej 7,7100,Vejle
Blågård Radio A/S,Støden 14,4000,Roskilde
Bang & Olufsen Horsens,Hestedamsgade 3,8700,Horsens
Pilshuse Radio ApS,Korsgade 15,5800,Nyborg
Munks Radio i/s,Storgade 46,4180,Sorø
Vedbæk Radio & Tv ApS,Vedbæk Stationsvej 17,2950,Vedbæk
Beo Gruppen Nordsjælland A/S,Nørregade 8,3300,Frederiksværk
Ormsson ehf.,Lagmula 8,108,Reykjavik
Bang & Olufsen Helsinki,Fredrikinkatu 38,100,Helsinki
HifiStudio Oulu,Pakkahuoneenkatu 34,90100,Oulu
HifiStudio Tampere,Tuomiokirkonkatu 25,33100,Tampere
HifiStudio Turku,Kristiinankatu 6,20100,Turku
Bang & Olufsen Østergade,Østergade 18,1100,København K
Bang & Olufsen Fisketorvet,"Kalvebod Brygge 59, plan 1",1560,København V
Archimedia Egypt,"40 Road 12, Maadi,",1,Cairo
BANG & OLUFSEN GRAND HYATT Singapore,"10-12 Scotts Road, #01-05 Grand Hyatt",228211,Singapore
Bang & Olufsen Takashimaya,391A Orchard Road # 302-4-1,238873,Singapore
AV Intelligence,Millenia Walk,039596,Singapore
Bang & Olufsen Malaysia,#S239A The Gardens Mall,59200,Kuala Lumpur
Bang & Olufsen Manila,Unit 2326-2327 Level 2,1650,Metro Manila
Bang & Olufsen Melia Hotel Hanoi,Melia Hotel,100000,Hanoi
Bang & Olufsen Dhaka,Radisson Blu Water Garden Hotel Dhaka,1206,Dhaka
Bang & Olufsen Gaysorn,"999 Ploenchit Road, Lumpini",10330,Bangkok
Bang & Olufsen,Pradit Manutham Road,10230,Bangkok
Bang & Olufsen Store at Crystal Veranda,Praditmanutham Road,10230,Ladprao District
Bang & Olufsen Pacific Place,"Jl. M.H. Thamrin 57, 10th floor",10350,Jakarta
Bang & Olufsen Brunei,Kawasan Perindustrian Mulaut,1,"Jln Mulaut Kilanas, Brunei Darussalam"
Bang & Olufsen Lahore,22 C 2 Gulberg III,54000,Lahore
Bang & Olufsen of Ho Chi Minh City,88 Dong Khoi  - District 1,1,Ho Chi Minh city
Bam va Ofogh Pars Co.,"Artesh Highway, Aghdasieh",1694813411,Tehran
Bang & Olufsen Talatona,"Edifício 1D, loja 2, R/C B",1,Luanda
Bang & Olufsen Argentina,"Libertad 1384, CABA",1024,Buenos Aires
Bang & Olufsen Bondi Junction,"Westfield, Level 5, 500 Oxford Street",2022,Bondi Junction
Audio Hub,"139 Hay Street, Subiaco",6008,Perth
Premium Sound,70-76 St. Kilda Road,3182,Melbourne
Magnum Sound & Vision,"138 Victoria St, Christchurch Central",8013,Christchurch
Gary Anderson,52 The Mall,9310,Cromwell
Tivoli HIFI,155-157 Camberwell Road,3123,Melbourne
Bang & Olufsen Baku,Z.Aliyeva street 31A,1000,Baku
Bang & Olufsen Sofia,10 Oborishte Str.,1504,Sofia
Bang & Olufsen Minsk,"Pobediteley Avenue 65, 4B",220035,Minsk
Bang & Olufsen Chile,"Casa Costanera, nivel Calle - 048",7630346,Santiago de Chile
Electroni,"CRA 100 #5-169, Local 102",1,Cali
Bang & Olufsen Belgrade,Svetozara Markovica,11000, Belgrade
We are smart spaces s.r.o.,Dusni 10,110 00,Praha 1
CMESMARTLIFE,Edificio Alcazar Dep. 501,010218,Cuenca
Bang & Olufsen Tallinn,Endla 16,10142,Tallinn
Bang & Olufsen - Tbilisi,"Budapeshti str. 7,",0160,Tbilisi
Bahamus Electronics,"Atlantic Tower, Liberation Road",1,Accra
Bang & Olufsen Kifissia,279 Kifissias Avenue,14561,"Kifissia, Athens"
Bang & Olufsen of Thessaloniki,Kifissias 48,55134,Thessaloniki
Bang & Olufsen Croatia,Gajeva 23,HR-10000, Zagreb
Hygge Hungary Zrt.,Fővám tér 11-12,1093, Budapest
Bang & Olufsen Israel,93 ramat yam st,4685193,"Hertzelia pitoach, Tel Aviv"
"Bang & Olufsen Mumbai, Terminal Ic",(Domestic Terminal).off Western Express Highway,400099,Mumbai
Bang & Olufsen Mumbai,S.B.Marg Lower Parel West Mumbai,400013,Mumbai
Bang & Olufsen Hyderabad,"Road No 1 Banjara Hills, Hyderabad",500034,Hyderabad
Bang & Olufsen Kolkata,"33 Syed Ali Road, Kolkata",700017,Kolkata
Bang & Olufsen New Delhi,"Nelson Mandela Road, Vasant Kunj",110070,New Delhi
Bang & Olufsen Bangalore,"UB City, Vittal Mallya Road, Bangalore",560001,Bangalore
BANG & OLUFSEN NEW OTANI HAKATA,"1-1-2, WATANABEDORI, CHUOKU-KU, FUKUOKA-SHI",810-0004,FUKUOKA
Bang & Olufsen Seibu Shibuya,"21-1 Udagawa-cho, Shibuya-ku",150-8330,Tokyo
Bang & Olufsen Saitama,"8-6-22 kamiochai, Chuo-ku, Saitai-shi",338-0001,Saitama
Bang & Olufsen Okayama,"Omotecho Style Store 3F, 2-2-80 Omotecho,Kita-Ku,Okayama-shi",700-0822,Okayama
Bang & Olufsen Futako Tamagawa,"2F 1-14-1 Tamagawa, Setagaya-ku",158-0094,Tokyo
Bang & Olufsen Umeda,"LUCUA 1100 9F, 3-1-3 Umeda, Kita-ku, Osaka-shi",530-8558,Osaka
Bang & Olufsen Gaienmae,"2-5-8 Kita Aoyama, Minato-ku,",107-0061,Tokyo
Bang & Olufsen TSUTAYA TOKYO ROPPONGI,"6-11-1 Roppongi, Minato-ku",106-0032,Tokyo
Bang & Olufsen Fukuoka Watanabedori,"4-8-28 Watanabe-dori, Chuo-ku,",810-0004,Fukuoka
Bang & Olufsen Nihonbashi,"2-4-1 Nihonbashi, Chuo-ku",103-8265,Tokyo
Bang & Olufsen Shinsaibashi,"4-2-4 Minami-Senba, Chuo-ku, Osaka-City",542-0081,Osaka
Bang & Olufsen Akihabara,"1-1, Kandahanaokacho, Chiyoda-ku",101-0028,Tokyo
Bang & Olufsen Isetan Shinjuku,"3-14-1, SHINJYUKU, SHIJYUKUKU",160-0022,TOKYO
BANG & OLUFSEN NAGOYA NEXT,1-11-14 KOYO,466-0061,AICHI
BANG & OLUFSEN ROPPONGI,"5-17-1, ROPPONGI, MINATO-KU",106-0032,TOKYO
BANG & OLUFSEN KOCHI,10-28 Minamikubo,780-0087,KOCHI
BANG & OLUFSEN AKASAKA,"2-14-3, NAGATACHO, CHIYODAKU",100-0014,TOKYO
Bang & Olufsen Almaty,"Al-Farabi avenue, 140 A",050040,Almaty
Bang & Olufsen - César Debbas et Fils,Gouraud Street,2028 1251, Beirut
Bang & Olufsen Vilnius,Ausros Vartu,1129,Vilnius
Bang & Olufsen Riga,Elizabetes street 69-10,1050,Riga
Bang & Olufsen of Morocco,"203, Boulevard d'Anfa",20100,Casablanca
Audio Video Concept d.o.o,Obala bb,85320,Tivat
Bang & Olufsen Mongolia,"Park Place, 1st khoroo, Chinggis Avenue-24,",14241,Ulaanbaatar
Doublesin & Zammit Ltd,"53, Nicolo Isouard Street,",SLM2084,Sliema
Bang & Olufsen Mauritius,"51A, Rue Du Savoir,",72201,Ebene
Bang & Olufsen Masaryk,"Ave Presidente Masaryk 506, Polanco",11560,Mexico 11560 D.F.
Bang & Olufsen Abuja,Aminu Kanu Crescent,1,Abuja
Bang & Olufsen Lima,Av. Santa Cruz 909 - Miraflores,18,LIMA
Bang & Olufsen Wilanów,Franciszka Klimczaka 1 Str.,02-797,Warszawa
Bang & Olufsen Gdynia,Legionow 112,81-472,Gdynia
Bang & Olufsen Asuncion,Delia Frutos de González,1,Asuncion
Bang & Olufsen Romania,"Calea 13 Septembrie 90, Sector 5",050726, Bucharest
Bang & Olufsen Crocus City Mall,Crocus City Mall Shopping Center,143404, Moscow
Bang & Olufsen Vladivostok,Sukhanova st. 2,690000, Vladivostok
Bang & Olufsen Irkutsk,"1, Okt. Revolyutsii St.",664007,Irkutsk
Bang & Olufsen Samara,"19, Ulyanovskaya street",443010,Samara
Bang & Olufsen Voronezh,"6, Kommisarzhevsky Street",394000,Voronezh
Bang & Olufsen Makhachkala,"Mogameda Yaragskovo Street, 77",367015,"Makhachkala, Dagestan"
Bang & Olufsen Kazan,Esperanto Street #10,420049,Kazan
Bang & Olufsen Leninsky,Leninsky Prospekt 12,119048,Moscow
Bang & Olufsen Smolenskaya,Smolenskaya Street 3,119121, Moscow
Bang & Olufsen Saint-Petersburg,7 Sovetskaya 16 lit.A/ Suvorovsky pr 22,193130, St. Petersburg
Bang & Olufsen Ljubljana,Breg,1000, Ljubljana
Bang & Olufsen Bratislava,Námestie. Eugene Suchona 1,811 02, Bratislava
Bang & Olufsen Akatlar Showroom,Uğur Mumcu Cad. Akat Mah. No: 8,34335,Istanbul
Bang & Olufsen Kharkov,Potebni street 6,61002,"Kharkov,"
Bang & Olufsen Vladimirskaya,"48, Volodymyrska St.",01034, Kyiv
Bang & Olufsen Punta del Este,"Av. Italia, Parada 4 y ½",11300,Maldonado
Bang & Olufsen Montevideo,Siria 6101 esq. San Marino,11400,Montevideo
"SISTEMAS HIGH END HOUSE, C.A.",AV. LUIS ROCHE CON 5TA.,1010,Caracas
Bang & Olufsen of Melrose Arch,"Shop 009H2, The Square, Melrose Arch",2196,Johannesburg
BANG & OLUFSEN OF MALL OF AFRICA,"Shop 2200, Mall of Africa",1682,"Waterfall City, Midrand"
Bang & Olufsen of Silo,"Shop 3B, Cnr Fish Quay & S Arm Road",8000,Cape Town
Bang & Olufsen Sandton City,"Shop BC12, Level 5",2146,Sandton City
EURL D V H DEVELOPPEMENT,DVHD 118 Rue Paradis,13006,Marseille 6EME
SARL Son et Image,201 Rue de la Jasse,34130,Mauguio
EURL Image HD,14-16 Rue du Limas,84000,Avignon
Design & Technologies,222-224 Boulevard Saint Germain,75007,Paris 07
SARL Enterprise Moissonnier,4 Rue René Cassin,1000,Bourg-En-Bresse
SARL Quistrup,45 Rue Esquermoise,59000,Lille
ETS Audio Video Design,60 Rue Gioffredo,6000,Nice
Bang & Olufsen Lyon - Bellecour,14 Rue des Archers,69002,Lyon
SARL ETS Menghi,"7 Bis Av, du Maréchal Sebastiani",20200,Bastia
M Devis Didier,"3-4 Prince de Galles, 3 Res. Prince de Galle AV Phare",62520,Le Touquet Paris Plage
SARL J.V.D.,17 Place Jean Payra,66000,Perpignan
EURL Esprit Grant Theatre,25 Rue Esprit Des Lois,33000,Bordeaux
SARL Lemoine,15 Boulevard Des Moulins,98000,MONACO (PTE de Monaco)
Bang & Olufsen Biarritz,"1, Avenue De Verdun",64200,Biarritz
Bang & Olufsen Lyon - La Martinière,12 Place Gabriel Rambaud,69001,Lyon
Bang & Olufsen Paris - Bastille,44 Boulevard Henri IV,75004,Paris
SARL ESPACE B ET O,46 Rue du Languedoc,31000,Toulouse
Bang & Olufsen Rennes,7 rue de Bertrand,35000,RENNES
EURL Stereo SAT Antipolis,4 Chemin Saint Bernard,6220,Vallauris
SARL Berlioz Audio Conseil,35 Rue Libergier,51100,Reims
Bersoult et Fils,"Parc de la Vatine, Rue Raymond Aron",76130,Mont Saint Aignan
Beo 6,30 cours Franklin Roosevelt,69006,Lyon
Bang & Olufsen Orléans,6 rue Jeanne d'Arc,45000,Orléans
Home SVE EURL,120 Rue De La Republique,67720,Hoerdt
Bang & Olufsen Victor Hugo,104 avenue Victor Hugo,75016,Paris
EURL BEOALPES,13 rue Montorge,38000,Grenoble
SAS ERD DIFFUSION,55 rue de l'Artisanat,74330,Poisy
Paris Archives,9 Rue des Archives,75004,Paris
Bang & Olufsen im Brienner Quartier,Maximiliansplatz 14,80333,München
Bang & Olufsen Augsburg,Predigerberg 16,86150,Augsburg
Bang & Olufsen Maxburgstrasse,Maxburgstrasse 4,80333,München
Hifi Profis,Grafenstr. 29,64283,Darmstadt
Cosse GmbH,Am Postamt 1,49744,Geeste-Dalum
Media@Home Blang,Petrusstr. 8,54292,Trier
Radio Bruckner GmbH,Schloßstr. 3,66953,Pirmasens
Bang & Olufsen Osnabrück,Hasestr. 11-14,49074,Osnabrück
em&t GmbH,An der Waisenhausmauer 6,6108,Halle
Blank GmbH & Co. KG,Anton-Gies-Str. 2,88131,Lindau
efa & käufl,Liebigstr. 3,84030,Landshut
Bang & Olufsen am Haidplatz,Haidplatz 7,93047,Regensburg
EURONICS XXL,Georg-Kohl-Straße 47,74336,Brackenheim
Bang & Olufsen Heilbronn,Allee 40,74074,Heilbronn
Funkhaus Küchenmeister,Friedrichstr. 15,19055,Schwerin
Funkhaus Küchenmeister,Hegede 5,23966,Wismar
Jüntgen GmbH,Grünewalderstr. 76-78,42657,Solingen
Bang & Olufsen Leipzig,Keilstr. 1e,4105,Leipzig
Bang & Olufsen Singen,Ekkehardstraße 19+21,78224,Singen
Bang & Olufsen Apostelnstraße,Apostelnstr. 9-11,50667,Köln
Bang & Olufsen Kohlscheid,Markt 50,52134,Herzogenrath-Kohlscheid
Federmann GmbH,Pflugfelder Str. 4-6,71636,Ludwigsburg
EP: Radio Zabel,Dürener Str. 238,50931,Köln
Beckhoff Technik und Design GmbH,Uhlandstr. 2,33415,Verl
Bang & Olufsen am Alten Markt,Obernstr. 17,33602,Bielefeld
Media Mobil,Anger 1,99084,Erfurt
Beck GmbH & Co. KG,Nürnberger Str. 111,97076,Würzburg
Bang Olufsen am Wall,Am Wall 153-156,28195,Bremen
Hifi Concept Living,Pariser Platz 4,81667,München
Hifi Studio Schneeberg-Neumann,Silhöfer Str. 25-27,35578,Wetzlar
Audio Video Technik Klett & Rhiem G,Bahnhofstr. 21,53879,Euskirchen
Detlef Coldewey GmbH,Burgstr. 6,26655,Westerstede
Bang & Olufsen im stilwerk,Kantstr. 17,10623,Berlin
Bang & Olufsen im KaDeWe,Tauentzienstr. 21-24,10789,Berlin
Bang & Olufsen Königsbaupassagen,"Königsstr. 26, Königsbaupassagen",70173,Stuttgart
Bang & Olufsen am Parkhaus König,Rümelinstrasse 4,72070,Tübingen
Bang & Olufsen Dresden am Zwinger,Ostra Allee 11,1067,Dresden
Bang & Olufsen im AEZ,Heegbarg 31,22391,Hamburg
Bang & Olufsen am Rathausmarkt,Kleine Johannisstrasse 10,20457,Hamburg
B&O Timmendorfer Strand,Kurpromenade 12,23669,Timmendorfer Strand
Bang & Olufsen Oldenburg,Lange Str. 1,26122,Oldenburg
Bang & Olufsen am Landtag,Karmarsch Str. 46,30159,Hannover
Bang & Olufsen im Stilwerk Düsseldorf,Grünstr. 15,40212,Düsseldorf
Bang & Olufsen im Alsterhaus,"Jungfernstieg 16-20, 3. Etage",20354,Hamburg
Bang & Olufsen Kassel,Neue Fahrt 2,34117,Kassel
Bang & Olufsen Schützenstraße,Schützenstr. 37,38100,Braunschweig
Bang & Olufsen Kö 61,Königsallee 61,40215,Düsseldorf
A. Michaelis GmbH,Hellweg 5-7,44787,Bochum
Bang & Olufsen Theaterpassage,Rathenaustr. 2,45127,Essen
Bang & Olufsen am Roggenmarkt,Roggenmarkt 3,48143,Münster
Bang & Olufsen Oxfordstraße,Oxfordstr. 2,53111,Bonn
Bang & Olufsen Fort Malakoff,Rheinstr. 4,55116,Mainz
Hifi-Profis Warenhandelsges. mbH,Große Friedberger Str. 23-27,60313,Frankfurt
Hifi-Profis Warenhandelsges. mbH,Kaiserstrasse 24,60311,Frankfurt
Bang & Olufsen Bad Homburg,Louisenstr. 96,61348,Bad Homburg
Bang & Olufsen Hanau,Ludwigstr. 71,63456,Hanau
Hifi-Profis Galerie Aschaffenburg,Wermbachstr. 44,63739,Aschaffenburg
Hifi Profis Verwaltungs- & Handels GmbH,Rheinstr. 29,65185,Wiesbaden
Bang & Olufsen Ludwigsplatz,Erbprinzenstr. 27,76133,Karlsruhe
Bang & Olufsen Kurfürstenpassage,Kurfürstenpassage P7 4,68161,Mannheim
Bang & Olufsen Maximilianstraße,Maximilianstr. 32,80539,München
J.Kiffer GmbH,Maximilianstr. 17,82319,Starnberg
Bang & Olufsen Nürnberg,Kaiserstr. 39,90403,Nürnberg
Graf Hören und Sehen,Charlottenstr. 5,70182,Stuttgart
Bang & Olufsen Freiburg,Grünwälderstr. 10 / Dietler-Passage,79098,Freiburg
Bang & Olufsen Krefeld,Königstrasse 133,47798,Krefeld
Bang & Olufsen Bogenhausen,Englschalkinger Strasse 230,81927,München
Bang & Olufsen Ulm,Münsterplatz 35,89073,Ulm
media@home Ostermeier GmbH,Freyberger Str. 27,85055,Ingolstadt
Bulthaup am Ring,Ravardistr. 52,46399,Bocholt
Bang & Olufsen Hong Kong Elements,1 Austin Road West,0,"Tsim Sha Tsui, Kowloon"
BANG & OLUFSEN Hong Kong FESTIVAL WALK,"Shop G-29, Festival Walk,",0,"Yau Yat Chuen, Kowloon"
Bang & Olufsen Hong Kong IFC,"Shop 2008, Podium Level 2, IFC Mall",0,Hong Kong
BANG & OLUFSEN Hong Kong CAUSEWAY BAY,"G/F, No. 24 and No. 25 Canal Road East",0,Causeway Bay
Bang & Olufsen Bergamo,Via Baschenis 7,24122,Bergamo
Bang & Olufsen Verona,Vicolo Ghiaia 5/b,37122,Verona
Bang & Olufsen Bolzano,Piazza della Parrocchia 18,39100,Bolzano
Bang & Olufsen Desenzano,Via S.Angela Merici 15/17,25015,Desenzano BS
Hi-Tech AudioVideo SNC,Via Montesuello 16,25128,Brescia BS
Bang & Olufsen Salvadori,Via Pomeria 75/81,59100,Prato PO
Bang & Olufsen Pescara,Via Piave 114/116,65122,Pescara PE
Bang & Olufsen Padova,Corso Milano 105,35100,Padova PD
Prime Site S.r.l.,Corso Garibaldi 2,20121,Milano MI
Bang & Olufsen Buscemi,C.so Magenta 27,20123,Milano MI
Gatti Group S.r.l.,Via Prealpi 80,20833,Giussano MB
ASTIN S.R.L.,Via Massimo Stanzione 13,80129,Napoli NA
Bang & Olufsen Posillipo,Via Manzoni 80A/84,80123,Napoli NA
Bang & Olufsen Fanfoni,Via XXII Luglio 17,43121,Parma PR
Menozzi,Via J.F. Kennedy 9,42124,Reggio Emilia RE
Gambelli S.r.l.,Via Marsala 13,61121,Pesaro PS
Bang & Olufsen Bologna,Via Val d'Aposa 1C,40123,Bologna (BO)
Roberto Parente & C. SRL,Corso Vitt. Emanuele 228,84123,Salerno
Bang & Olufsen Bari,Via Alessandro Maria Calefati 160,70122,Bari
Bang & Olufsen Orazi - Ponte Milvio,V.le Di Tor di Quinto 25,191,Roma RM
Bang & Olufsen Colombo,Via Cristoforo Colombo 193 a/b,147,Roma RM
Bang & Olufsen Parioli,Via Po 49/A - 49/B,198,Roma RM
Bang & Olufsen Taxivision,Via Giuseppe Verdi 21,10124,Torino
Hi-Fi Tommasini S.r.l.,Via Cesare Battisti 1,31046,Oderzo TV
Videoelettronica S.r.l.,Via IV Novembre,36014,Santorso VI
Bang & Olufsen Trento  Di Carlini Fulvio,"Via Belenzani,  26",38122,Trento TN
Bang & Olufsen Udine,Via Marangoni 89,33100,Udine UD
Proline,Via Sacco ang. Via Robbioni 1,21100,Varese
Bang & Olufsen Dubai Mall Showroom,"First Level, Fashion Avenue, Dubai Mall",44891,Dubai
Bang & Olufsen Manama Bahrain,"Bahrain Commercial Complex (Sheraton Tower), Shop no. 121",1,Al Manama
Bang & Olufsen Showroom,Salem Mubarak Street,0,SALMIYA - KUWAIT
Bang & Olufsen,Level 1 West Bay Lagoon,615,Doha
Bang & Olufsen Riyadh KSA,2043 Prince Muhamad Ibn Abdulaziz Rd,12222, 781 Riyadh
Bang & Olufsen Jeddah KSA,"Awtad Center,  3rd floor,",21473, Jeddah
SEMA RETAIL B.V.,Hondegatstraat 8,3841 CG,Harderwijk
Ed Baak Audio en Video,Vlierweg 10,3991 BC,HOUTEN
EXPERT VAN DE GRIENDT DRUNEN V.O.F.,Torenstraat 5,5151 JJ,DRUNEN
Bang en Olufsen Nijmegen,St. Annastraat 52-54,6524 GE,NIJMEGEN
Bang & Olufsen Enschede,H.J. Van Heekplein,7511 HL,Enschede
Bang & Olufsen Uden,Pastoor Spieringsstraat 215-217,5401 GT,Uden
Bang & Olufsen Experience Center,Bergse Dorpsstraat 113,3054 GC,Rotterdam
Bang & Olufsen Experience Center Breda,Nieuwe Ginnekenstraat 49,4811 NP,Breda
Hegeman Audio Video Centers B.V.,Amsterdamseweg 418-420,1181 BT,AMSTELVEEN
Hegeman Bussum B.V.,Vlietlaan 4a,1404 CA,BUSSUM
Bang & Olufsen ter Horst,Parijsboulevard 193,3541 CS,Utrecht
Elektro-Technisch Bureau C.Van Kapel VOF,Hugo de Grootstraat 118-136,2613 TX,DELFT
Lemmens Maastricht B.V.,Avenue Ceramique 175,6221 KX,Maastricht
Morelisse Beeld en Geluid B.V.,Weverssingel 24,3811 GK,Amersfoort
Bang & Olufsen Poulissen,Jesuitenstraat 3,6041 ED,Roermond
Bang & Olufsen Praalder,Theresiastraat 151,2593 AG,S GRAVENHAGE
Brussee Solutions,Voorstraat 65,2225 EM,Katwijk
Bang & Olufsen Rozestraten,Havenstraat 17,1271 AB,Huizen
Bang & Olufsen Tilburg B.V.,Ringbaan-Zuid 251,5021 LR,TILBURG
Bang en Olufsen Henri Tibosch B.V.,Reitscheweg 65,5232 BX,s Hertogenbosch
Bang & Olufsen M. Troelstra,Leeuwenburg 13,8601 CG,SNEEK
Bang & Olufsen Groningen,A straat 2,9718 CR,GRONINGEN
Bang & Olufsen Zwolle,Luttekestraat 25,8011 LP,Zwolle
Bang & Olufsen Center Eindhoven b.v.,Aalsterweg 68,5615 CH,Eindhoven
Domus Barlaeus B.V.,Van Baerlestraat 116,1071 BC,Amsterdam
Ynter Audio & Video Design B.V.,Ritsevoort 17,1811 DM,ALKMAAR
Bang & Olufsen Rivierenland B.V.,Newtonweg 18,4207 HK,Gorinchem
De Zeeuw Multimedia B.V.,Koningstraat 59,6811 DH,ARNHEM
3D-Elektronikk AS,Drammensveien 130,278,Oslo
Bang & Olufsen Sandnes,Luramyrveien 61,4313,Sandnes
INVEST BSS SKIEN AS,KONGENS GATE 19,3717,Skien
Bang & Olufsen Sandvika,SANDVIKSVEIEN 176,1338,Sandvika
TALB AS,Stortorvet 4-8,1607,Fredrikstad
Bang & Olufsen Oslo Sentrum,Roald Amundsens gate 6,161,Oslo
Bang & Olufsen Lillestrøm,Sørumsgata 11C,2000,Lillestrøm
BSA Holding AS,Tårnplassen 3,5012,Bergen
El Corte Inglés Alicante,Avenida Federico Soto Nº1 5ªplanta,03003,Alicante
Bang & Olufsen Elche,"C/Luis Gonzaga Llorente, 3",03202,Elche
Bang & Olufsen Marbella,Nueva Andalucia L. 1-Edificio OPQ,29660,Puerto Banús
Bang & Olufsen Aveiro,"Av. Santa Joana, nº 17 - Loja Esq.",3830-329,Aveiro
Bang & Olufsen Amoreiras,Av. Duarte Pacheco,1070-103,Lisboa
Bang & Olufsen Cascais,"Av.  25 de Abril,  970 -R/C Dto.",2750-512,Cascais
Bang & Olufsen Boavista,"Edificio  Avís, Loja 15",4100-139,Porto
Global BEO SL,Avenida de la Victoria 95,28221,Majadahonda
Bang & Olufsen Jardín de Serrano,"C/Goya, 6-8",28001,Madrid
Bang & Olufsen ECI Castellana,Raimundo Fdez. Villaverde,28003,Madrid
Bang & Olufsen Retiro,Calle Alcalá 85,28009,Madrid
Bang & Olufsen Hipercor Pozuelo,"Ctra. La Coruña, km. 12",28224,Pozuelo de Alarcón-Madrid
Bang & Olufsen El Corte Inglés Callao,"Plaza del Calllao, 2",28013,Madrid
Sutega Coruña,Ronda de Nelle 144,15010,Coruña
Bang & Olufsen Alameda Recalde,"Alameda Recalde, 48",48003,Bilbao
Bang & Olufsen Donostia,Zubieta 5,20007,"San Sebastian, Gipuzcoa"
Bang & Olufsen Málaga,"C/ Hilera, 5",29007,Málaga
Bang & Olufsen Marqués de Pidal,"C/ Marqués de Pidal, 19",33004,Oviedo
Bang & Olufsen Valencia,"Gran vía Marques del Turia, 75",46005,Valencia
Bang & Olufsen San Bernardo,"Calle Viera y Clavijo n5, local",35002,Las Palmas de Gran Canaria
Bang & Olufsen Passeig de Mallorca,Passeig de Mallorca 5 B,07011,Palma de Mallorca
Bang & Olufsen Valladolid,"C/San Lorenzo, 10",47001,Valladolid
Bang & Olufsen Gran Via Coliseum,Gran Via de les Corts Catalanes 606 Bajos,08007,Barcelona
Bang & Olufsen Monleón,"C/ Balmes, 317",08006,Barcelona
Bang & Olufsen Travessera de Gràcia,"Travessera de Gràcia, 23",08021,Barcelona
Audio Video Design i Linköping AB,Bokhållaregatan 1,582 24,Linköping
Bang & Olufsen Sturegallerian,Humlegårdsgatan 17,11446,Stockholm
Bang & Olufsen Bromma,Ulvsundavägen 185 C,168 67,Bromma
Bredaryds Radio och TV AB,Norregårdsvägen 24,333 71,Bredaryd
Schaake Store AB,Drottninggatan 58,252 21,Helsingborg
Tele-Hå Radio-TV Kommanditbolag,Skanstorget 2,411 22,Göteborg
Bang & Olufsen Teatergatan,Teatergatan 30-36,41135,Göteborg
Bang & Olufsen Riviera,Route du Verney 7,1070,Puidoux
Télé-Clinique Lausanne SA,Chemin de la Cure 2,1066,Epalinges
Bang & Olufsen rue de l'Hôtel de Ville,"16, rue de l'Hôtel de Ville",1204,Genève
Bang & Olufsen Nyon,Route Champ-Colin 2A,1260,Nyon
Canapa TV-Video-Hi Fi SA,"25, rue Centrale",1880,Bex
Bang & Olufsen Sion,"14, Rue des Remparts",1950,Sion
Hofmann,Dorfmärit 16,3065,Bolligen
Sensat AG,Bahnhofstr. 7,3186,Düdingen
Radio TV Schmid AG,Kapälliplatz,3780,Gstaad
Media-Line GmbH,Spielmatte 6,3800,Unterseen-Interlaken
Media-Line GmbH,Frutigenstrasse 46,3600,Thun
Media-Line GmbH,Seftigenstrasse 186a,3084,Wabern
Bang & Olufsen Basel,Gundeldingerstrasse 359,4053,Basel
Allemann Media AG,Hauptstrasse 23/25,4563,Gerlafingen
Bolliger HiFi TV Video AG,Mühlethalstrasse 10,4800,Zofingen
Bühler Multimedia GmbH,Rain 53,5000,Aarau
Schneider Hifi-TV-Video,Dorfstrasse 11,5303,Würenlingen
Radio-TV-Service Fries AG,Landstrasse 124,5430,Wettingen
Tschachtli AG,Breitistrasse 6,5610,Wohlen AG
Raeber & Fischer Hifi-TV-Telecom,Zugerstrasse 23,5621,Zufikon
Bang & Olufsen Luzern,Bahnhofstrasse 22,6003,Luzern
HiFi-Mathys AG,Marktgasse 6,6371,Stans
Zimmermann Radio-TV,Chamerstrasse 175,6300,Zug
Bang & Olufsen Zug,Feldpark 9,6300,Zug
Teletronic Video Hifi SA,Viale Stazione 30,6500,Bellinzona
Bang & Olufsen am Stauffacher,Stauffacherstrasse 16,8004,Zürich
Sauter AG Radio + Television,Vordergasse 31,8200,Schaffhausen
Schläpfer Radio & Television GmbH,Stadlerstrasse 10,8472,Seuzach
Expert Bosshard,Dorfstrasse 39,8424,Embrach
Bang & Olufsen am Hegibachplatz,Forchstrasse 94 / Hegibachplatz,8008,Zürich
Mahler Audio Video,Wilstrasse 17,8600,Dübendorf
Radio Noser AG,Bahnhofstrasse 7,8867,Niederurnen
Radio-Television Staeger AG,Alte Landstrasse 160,8800,Thalwil
Radio-Television Staeger AG,Seestrasse 54-58,8712,Stäfa
Expert Cäsar Kälin GmbH,Zürichstrasse 42,8840,Einsiedeln
Bang & Olufsen Amriswil,Im Vorland 8,8580,Amriswil
Bang & Olufsen Maienfeld,Untere Industrie 10,7304,Maienfeld
"Häberli, Der Partner",Bronschhoferstrasse 46,9500,Wil
Bang & Olufsen Zürcherstrasse,Zürcherstrasse 282,8500,Frauenfeld
EP:Gämperle AG,Ebnaterstrasse 10,9630,Wattwil
Bang & Olufsen Zürcherstrasse,Zürcherstrasse 53,9000,St. Gallen
Bang & Olufsen Lugano,Corso Elvezia 1,6900,Lugano
Bula Epalinges,Place de la Croix-Blanche 21,1066,Epalinges
Bula SA Neuchâtel,Rue du Seyon 26,2000,Neuchâtel
Bang & Olufsen Carlisle,Shaddongate,CA2 5TE,Carlisle
Peter Tyson. Newcastle,Kingston Park,NE3 2FP,Newcastle
Bang & Olufsen of Jersey,34-35 Hilgrove Street,JE2 4SL,Jersey
Active Audio Visual Ltd,1 Beer Cart Lane,CT1 2NY,Canterbury
Potters Home Digital Ltd,7 East Cross,TN30 6AD,Tenterden
Harrods,Trevor Square,SW7 1DT,London
Selfridges,400 Oxford Street,W1A 1AB,London
Bang & Olufsen of Knightsbridge,3a 50 Brompton Road,SW3 1BW,London
Bang & Olufsen Marylebone High Street,65 Marylebone High Street,W1U 5JG,London
NRH HOLDINGS LTD,403 Ecclesall Road,S11 8PG,Sheffield
Dawsons Radio Ltd,74 Poole Road,BH4 9DZ,Bournemouth
Bang & Olufsen of Bexleyheath,155 Broadway,DA6 7EZ,Bexleyheath
Iapetus Ltd !! Bang & Olufsen of Yarm,133 High Street,TS15 9BB,Yarm
Bernard Dickinson Ltd,"13 Beech Drive, Fulwood",PR2 3NB,Preston
Bang & Olufsen of Leicester,15 Allandale Road,LE2 2DA,Leicester
Bang & Olufsen of Lincoln,114 High Street,LN5 7PY,Lincoln
Mayne Vision Ltd,16/18 New London Road,CM2 0SP,Chelmsford
Marshallsound Ltd,"1st Floor, 29 The Square",SO23 9EX,Winchester
DANISH CENTRES LTD,22 Red Lion Street,TW9 1RW,Richmond
Bang & Olufsen of Tunbridge Wells,66 Mount Pleasant Road,TN1 1RB,Tunbridge Wells
Bang & Olufsen of Islington London,272 Upper Street,N1 2UQ,London
MARK ST JOHN BUTTERS Audiocraft,23-25 Derngate,NN1 1TY,Northampton
Terry Bird Partners Bang & Olufsen Centr,Cribbs Causeway,BS10 7TU,Bristol
Strathtec Retail Ltd,153 Ingram Street,G1 1DW,Glasgow
S & H Audio Limited,17 Bond Street,W5 5AP,London
Electric Melon Limited,6 High Street,SY1 1SP,Shrewsbury
Bang & Olufsen of King Street,55 King Street,M2 4LQ,Manchester
Savage Sound & Vision Ltd,50 Alderley Road,SK9 1NY,Wilmslow
Bang & Olufsen of Newcastle,45 Bath Lane,NE4 5SP,Newcastle Upon Tyne
Erinem Ltd,"Unit 3, 404-408 Lisburn Road",BT9 6GN,Belfast
Pro Audio Visual UK Ltd,56 Church Road,BN3 2FP,Hove
Intelligent AV Solution Ltd,61 High Street,CO1 1DN,Colchester
Bang & Olufsen of Cardiff,7-9 Wyndham Arcade,CF10 1FH,Cardiff
MD Audio Solutions Ltd,30/31 Gandy Street,EX4 3LS,Exeter
J P B Audio Visual Limited,Unit 15 The Courtyard Montpellier Street,GL50 1SR,Cheltenham
Twenty To Two Ltd,77 Station Parade,HG1 1ST,Harrogate
Bang & Olufsen of Maidstone,"37 Royal Star Arcade, High Street",ME14 1JL,Maidstone
Bang & Olufsen of Cambridge,29 Magdalene Street,CB3 0AF,Cambridge
Bradbeers Furniture,Bradbeers Retail Park,SO30 2QY,Southampton
Bang & Olufsen Winchmore Hill,727 Greens Lanes,N21 3RX,London
Marcus Reed Audio Limited,26 Boscawen Street,TR1 2QQ,Truro
Bang & Olufsen of Guildford,8a Tunsgate,GU1 3QT,Guildford
Avensys Limited,Avensys House,RH10 9JY,Crawley
Amgrace Ltd.,78 Regent Street,CV32 4NS,Leamington Spa
Bang & Olufsen of Ramsbottom,8 Square Street,BL0 9BE,Ramsbottom
Bang & Olufsen of Aberdeen,445 Holburn Street,AB10 7GU,Aberdeen
Amgrace Derby Ltd,47 Queen Street,DE1 3DE,Derby
Bang & Olufsen of Windsor,4a High Street,SL4 1LD,Windsor
Bang & Olufsen Duke Street,15 Duke Street,2,Dublin
Bang & Olufsen of Canary Wharf,2 The South Colonnade,E14 4PZ,London
Mission Audio/Video,1910 De La Vina Street,93101,Santa Barbara
SAV Inc.,81211 Gallatin Rd. .,59718,Bozeman
Interiors by Design West,9118 Strada Place,34108,"Naples,"
SmartHouse Integration,1385 5th Street,34236,Sarasota
Blueprint Audio Visual LLC,"560 North Nimitz Highway, Suite 121A",96817,"Honolulu,"
Epic Luxury Automation,701-318 Homer Street,V6B 2V2,Vancouver
The Audiophile Group,8001 NW 79th Avenue,33166,Miami
NextData Technology,"515 S Flower Street, Suite 2850",90071,Los Angeles
"Systems Integrators, Inc.",9 Barracuda Lane,33037,Key Largo
James Frost Luxury Outfitters,105-123 Avenue B South,S7M 5X6,Saskatoon
"F&F Creations, Inc",73-470 El Paseo Suite F2,92260,"Palm Desert,"
Digital Interiors,1825 Grassland Parkway Suite A,30004,"Alpharetta,"
Atlanta Audio & Automation,"631 Miami Circle, Suite 15",30324,"Atlanta,"
Spire Integration,2786 Industrial Row Drive,48084,Troy
"Audio Video Excellence, Inc.",2560 18th Street South,35209,Homewood
Technology by Design,3956 NW Urbandale Dr.,50322,Urbandale
AVAWORKS INC.,2638 Bur Oak Avenue,L6B 1J3,Markham
Devance AV Design,2833 Trinity Square Dr. Suite 173,75006,Carrolton
Premiere Systems,1400 N. Kingsbury St.,60642,Chicago
Service Tech AV,1320 Arrow Point Dr #107,78613,Cedar Park
"Advanced Home Theater, AHT",8312 NW 30th Terrace,33122,Doral
CRESCENDO DESIGNS,641 County Road 39A,11968,Southampton
ELECTRONIC ENVIRONMENTS,247 West 37th Street Suite 704,10018,New York
"AUDIO COMMAND SYSTEMS, IN",694 Main St.,11590,Westbury
MAVERICK INTEGRATION,589 W Hollis St,03062,Nashua
LPTrading LLC,"3601 SW 30th Ave, Suite 12",33312,Ft Lauderdale
SmartLife Audio Video,858 W. Happy Canyon Rd. Suite 115,80108,Castle Rock
Electronic Home Environments,808 Boucher Ave. Unit G1,21403,Annapolis
Overture Audio,2460 West Stadium Blvd.,48103,Ann Arbor
TSP (Tech Superpowers),"1280 Massachusetts Avenue, Suite 410",02138,"Cambridge,"
Bang & Olufsen Madison Avenue,600 Madison Ave Suite 104,10022,New York
"The Vision Group, Inc.",141B Newbury Street,02116,Boston
Bang & Olufsen SoHo,121 Spring Street,10012,New York
Abt Electronics,1200 N Milwaukee Ave,60025,Glenview
Bang & Olufsen  Kebecson,6555 Rue St. Denis,H2S 2S1,Montreal
Flagship Audio Inc.,"100 Davenport Road, Suite 100",M5R 1H7,Toronto
Bang & Olufsen Commercial Electronics,1565 West 7th Avenue,V6J 1S1,Vancouver
Bang & Olufsen at Fillion Electronique,5690 Sherbrook est,H1N 1A1,Montreal
Mainline Retail,"163 East Lancaster Avenue, 1st Floor",19087,Wayne
Bang & Olufsen Gulfstream,"500 Seabiscuit Trail, #1030",33009,"Hallandale Beach,"
Bang & Olufsen Fountain Square,6 West Fourth Street,45202,"Cincinnati,"
Pro Tech Solutions,7849 SW Cirrus Ave #24D,97008,Beaverton
"Watt Integration, LLC","8300 N. Hayden Rd, Suite A118",85258,Scottsdale
Bang & Olufsen South Coast Collection,3323-B Hyland Ave,92626,Costa Mesa
Bang & Olufsen Rodeo Drive,479 N Rodeo Dr #104,90210,Beverly Hills
